NORAD_CAT_ID,OBJECT_NAME,OBJECT_TYPE,EPOCH,MEAN_MOTION,ECCENTRICITY,INCLINATION,RA_OF_ASC_NODE,ARG_OF_PERICENTER,MEAN_ANOMALY,BSTAR,MEAN_MOTION_DOT,MEAN_MOTION_DDOT,TLE_LINE0,TLE_LINE1,TLE_LINE2,SEMIMAJOR_AXIS,PERIOD,APOGEE,PERIGEE,DECAYED
51857.0,STARLINK-3571,PAYLOAD,2023-10-29 04:34:44,15.08851021,0.0001639,53.2156,291.0396,91.8084,268.3096,0.00023446,3.446e-05,0.0,0 STARLINK-3571,1 51857U 22022F   23302.19078834  .00003446  00000-0  23446-3 0  9993,2 51857  53.2156 291.0396 0001639  91.8084 268.3096 15.08851021 92814,6917.847,95.437,540.846,538.578,0.0
51857.0,STARLINK-3571,PAYLOAD,2023-10-29 09:20:53,15.08859146,0.000164,53.2162,290.1475,90.1835,269.9345,0.00046286,7.09e-05,0.0,0 STARLINK-3571,1 51857U 22022F   23302.38950598  .00007090  00000-0  46286-3 0  9996,2 51857  53.2162 290.1475 0001640  90.1835 269.9345 15.08859146 92840,6917.822,95.436,540.821,538.552,0.0
51857.0,STARLINK-3571,PAYLOAD,2023-10-30 04:25:31,15.088419,0.0001998,53.2159,286.5774,111.1988,248.9217,0.00014499,2.02e-05,0.0,0 STARLINK-3571,1 51857U 22022F   23303.18439322  .00002020  00000-0  14499-3 0  9991,2 51857  53.2159 286.5774 0001998 111.1988 248.9217 15.08841900 92963,6917.875,95.437,541.122,538.357,0.0
51857.0,STARLINK-3571,PAYLOAD,2023-10-30 15:33:13,15.08837412,0.0001653,53.217,284.4977,99.4591,260.6588,0.0003224,4.846e-05,0.0,0 STARLINK-3571,1 51857U 22022F   23303.64807645  .00004846  00000-0  32240-3 0  9991,2 51857  53.2170 284.4977 0001653  99.4591 260.6588 15.08837412 93038,6917.888,95.438,540.897,538.61,0.0
51857.0,STARLINK-3571,PAYLOAD,2023-10-31 04:16:19,15.08832548,0.0001634,53.2159,282.1176,99.7585,260.3592,0.00028524,4.254e-05,0.0,0 STARLINK-3571,1 51857U 22022F   23304.17800021  .00004254  00000-0  28524-3 0  9994,2 51857  53.2159 282.1176 0001634  99.7585 260.3592 15.08832548 93112,6917.903,95.438,540.899,538.638,0.0
51857.0,STARLINK-3571,PAYLOAD,2023-10-31 05:51:42,15.08837698,0.0001572,53.2161,281.8214,95.7497,264.3674,0.00049508,7.599e-05,0.0,0 STARLINK-3571,1 51857U 22022F   23304.24424018  .00007599  00000-0  49508-3 0  9990,2 51857  53.2161 281.8214 0001572  95.7497 264.3674 15.08837698 93120,6917.887,95.438,540.84,538.665,0.0
51857.0,STARLINK-3571,PAYLOAD,2023-10-31 21:45:33,15.08845678,0.0001541,53.2158,278.8488,98.4466,261.6701,0.0007519,0.00011701,0.0,0 STARLINK-3571,1 51857U 22022F   23304.90664242  .00011701  00000-0  75190-3 0  9994,2 51857  53.2158 278.8488 0001541  98.4466 261.6701 15.08845678 93226,6917.863,95.437,540.794,538.662,0.0
51857.0,STARLINK-3571,PAYLOAD,2023-11-01 08:53:15,15.08860639,0.0001551,53.2158,276.7664,97.854,262.2629,0.0009325,0.00014592,0.0,0 STARLINK-3571,1 51857U 22022F   23305.37031825  .00014592  00000-0  93250-3 0  9999,2 51857  53.2158 276.7664 0001551  97.8540 262.2629 15.08860639 93293,6917.817,95.436,540.755,538.609,0.0
51857.0,STARLINK-3571,PAYLOAD,2023-11-01 15:14:48,15.08848301,0.0001956,53.2179,275.574,88.6185,271.5032,0.00048058,7.37e-05,0.0,0 STARLINK-3571,1 51857U 22022F   23305.63528030  .00007370  00000-0  48058-3 0  9999,2 51857  53.2179 275.5740 0001956  88.6185 271.5032 15.08848301 93338,6917.855,95.437,541.073,538.367,0.0
51857.0,STARLINK-3571,PAYLOAD,2023-11-02 03:57:53,15.08841897,0.0001847,53.2162,273.1968,86.0495,274.0709,7.7968e-05,9.53e-06,0.0,0 STARLINK-3571,1 51857U 22022F   23306.16520060  .00000953  00000-0  77968-4 0  9996,2 51857  53.2162 273.1968 0001847  86.0495 274.0709 15.08841897 93412,6917.875,95.437,541.017,538.462,0.0
51857.0,STARLINK-3571,PAYLOAD,2023-11-02 05:33:16,15.08845071,0.0001709,53.2163,272.9007,85.8628,274.256,0.0001664,2.362e-05,0.0,0 STARLINK-3571,1 51857U 22022F   23306.23143967  .00002362  00000-0  16640-3 0  9996,2 51857  53.2163 272.9007 0001709  85.8628 274.2560 15.08845071 93422,6917.865,95.437,540.912,538.548,0.0
51857.0,STARLINK-3571,PAYLOAD,2023-11-02 21:27:07,15.08844451,0.0001883,53.2163,269.9295,90.6315,269.4893,-1.4977e-05,-5.27e-06,0.0,0 STARLINK-3571,1 51857U 22022F   23306.89383788 -.00000527  00000-0 -14977-4 0  9990,2 51857  53.2163 269.9295 0001883  90.6315 269.4893 15.08844451 93524,6917.867,95.437,541.034,538.429,0.0
51857.0,STARLINK-3571,PAYLOAD,2023-11-03 06:59:25,15.08855647,0.0001676,53.2174,268.1407,98.1867,261.9316,0.00016753,2.38e-05,0.0,0 STARLINK-3571,1 51857U 22022F   23307.29127169  .00002380  00000-0  16753-3 0  9994,2 51857  53.2174 268.1407 0001676  98.1867 261.9316 15.08855647 93589,6917.833,95.437,540.857,538.538,0.0
51857.0,STARLINK-3571,PAYLOAD,2023-11-03 21:17:55,15.08835196,0.0001661,53.2172,265.4676,91.1268,268.9914,-7.5679e-07,-3e-06,0.0,0 STARLINK-3571,1 51857U 22022F   23307.88744414 -.00000300  00000-0 -75679-6 0  9994,2 51857  53.2172 265.4676 0001661  91.1268 268.9914 15.08835196 93675,6917.895,95.438,540.909,538.611,0.0
51857.0,STARLINK-3571,PAYLOAD,2023-11-04 03:39:27,15.08836719,0.0001776,53.2176,264.2741,98.3033,261.8161,-4.5192e-05,-1.007e-05,0.0,0 STARLINK-3571,1 51857U 22022F   23308.15240405 -.00001007  00000-0 -45192-4 0  9996,2 51857  53.2176 264.2741 0001776  98.3033 261.8161 15.08836719 93718,6917.89,95.438,540.984,538.527,0.0
51857.0,STARLINK-3571,PAYLOAD,2023-11-04 14:47:09,15.08836408,0.0001533,53.2167,262.1952,99.5102,260.6063,5.7503e-05,6.27e-06,0.0,0 STARLINK-3571,1 51857U 22022F   23308.61608622  .00000627  00000-0  57503-4 0  9990,2 51857  53.2167 262.1952 0001533  99.5102 260.6063 15.08836408 93780,6917.891,95.438,540.817,538.696,0.0
51857.0,STARLINK-3571,PAYLOAD,2023-11-05 03:30:14,15.08855743,0.0001733,53.2169,259.815,104.4114,255.7071,0.00028583,4.266e-05,0.0,0 STARLINK-3571,1 51857U 22022F   23309.14599741  .00004266  00000-0  28583-3 0  9998,2 51857  53.2169 259.8150 0001733 104.4114 255.7071 15.08855743 93862,6917.832,95.437,540.896,538.498,0.0
51857.0,STARLINK-3571,PAYLOAD,2023-11-06 06:31:46,15.08896394,0.0001626,53.2158,254.7579,94.9233,265.1945,0.0013625,0.00021496,0.0,0 STARLINK-3571,1 51857U 22022F   23310.27206215  .00021496  00000-0  13625-2 0  9999,2 51857  53.2158 254.7579 0001626  94.9233 265.1945 15.08896394 94037,6917.708,95.434,540.698,538.448,0.0
51857.0,STARLINK-3571,PAYLOAD,2023-11-06 12:53:19,15.08849135,0.0002154,53.2159,253.5704,83.3523,276.7715,-0.0003111,-5.237e-05,0.0,0 STARLINK-3571,1 51857U 22022F   23310.53703184 -.00005237  00000-0 -31110-3 0  9992,2 51857  53.2159 253.5704 0002154  83.3523 276.7715 15.08849135 94074,6917.852,95.437,541.208,538.227,0.0
51857.0,STARLINK-3571,PAYLOAD,2023-11-07 03:11:48,15.08815163,0.0001575,53.2174,250.8989,117.463,242.6522,-0.00068165,-0.00011113,0.0,0 STARLINK-3571,1 51857U 22022F   23311.13319852 -.00011113  00000-0 -68165-3 0  9994,2 51857  53.2174 250.8989 0001575 117.4630 242.6522 15.08815163 94162,6917.956,95.439,540.911,538.732,0.0
51857.0,STARLINK-3571,PAYLOAD,2023-11-07 12:44:07,15.08813479,0.0001164,53.2164,249.1109,100.6588,259.4536,0.00029897,4.47e-05,0.0,0 STARLINK-3571,1 51857U 22022F   23311.53064703  .00004470  00000-0  29897-3 0  9995,2 51857  53.2164 249.1109 0001164 100.6588 259.4536 15.08813479 94222,6917.961,95.439,540.632,539.021,0.0
51857.0,STARLINK-3571,PAYLOAD,2023-11-08 03:02:36,15.08842766,0.0001235,53.2162,246.4349,104.6796,255.4334,0.001197,0.00018815,0.0,0 STARLINK-3571,1 51857U 22022F   23312.12681089  .00018815  00000-0  11970-2 0  9993,2 51857  53.2162 246.4349 0001235 104.6796 255.4334 15.08842766 94313,6917.872,95.437,540.591,538.883,0.0
51857.0,STARLINK-3571,PAYLOAD,2023-11-08 04:37:59,15.08846617,0.0001163,53.2159,246.1377,103.7751,256.337,0.0012375,0.00019465,0.0,0 STARLINK-3571,1 51857U 22022F   23312.19305012  .00019465  00000-0  12375-2 0  9991,2 51857  53.2159 246.1377 0001163 103.7751 256.3370 15.08846617 94328,6917.86,95.437,540.53,538.921,0.0
51857.0,STARLINK-3571,PAYLOAD,2023-11-09 02:53:22,15.08860178,0.0001231,53.215,241.9733,112.3144,247.7979,0.00073679,0.00011464,0.0,0 STARLINK-3571,1 51857U 22022F   23313.12040474  .00011464  00000-0  73679-3 0  9999,2 51857  53.2150 241.9733 0001231 112.3144 247.7979 15.08860178 94468,6917.819,95.436,540.535,538.832,0.0
51857.0,STARLINK-3571,PAYLOAD,2023-11-10 02:44:10,15.08848824,0.0001521,53.216,237.5137,77.6079,282.5083,0.00039208,5.959e-05,0.0,0 STARLINK-3571,1 51857U 22022F   23314.11400695  .00005959  00000-0  39208-3 0  9996,2 51857  53.2160 237.5137 0001521  77.6079 282.5083 15.08848824 94614,6917.853,95.437,540.771,538.666,0.0
51857.0,STARLINK-3571,PAYLOAD,2023-11-10 12:16:29,15.08836295,0.0001774,53.2158,235.7289,83.8557,276.2637,-1.5896e-05,-5.41e-06,0.0,0 STARLINK-3571,1 51857U 22022F   23314.51144834 -.00000541  00000-0 -15896-4 0  9992,2 51857  53.2158 235.7289 0001774  83.8557 276.2637 15.08836295 94679,6917.892,95.438,540.984,538.529,0.0
51857.0,STARLINK-3571,PAYLOAD,2023-11-11 12:07:16,15.08842635,0.0001574,53.2156,231.2662,94.8932,265.224,0.00032787,4.934e-05,0.0,0 STARLINK-3571,1 51857U 22022F   23315.50505094  .00004934  00000-0  32787-3 0  9996,2 51857  53.2156 231.2662 0001574  94.8932 265.2240 15.08842635 94820,6917.872,95.437,540.826,538.648,0.0
51857.0,STARLINK-3571,PAYLOAD,2023-11-11 21:39:35,15.08841491,0.0001756,53.2164,229.4816,97.3259,262.7933,0.00028954,4.323e-05,0.0,0 STARLINK-3571,1 51857U 22022F   23315.90249187  .00004323  00000-0  28954-3 0  9991,2 51857  53.2164 229.4816 0001756  97.3259 262.7933 15.08841491 94887,6917.876,95.437,540.956,538.526,0.0
51857.0,STARLINK-3571,PAYLOAD,2023-11-12 00:50:21,15.08845789,0.0001782,53.2165,228.8857,100.742,259.3773,0.00027548,4.1e-05,0.0,0 STARLINK-3571,1 51857U 22022F   23316.03496994  .00004100  00000-0  27548-3 0  9997,2 51857  53.2165 228.8857 0001782 100.7420 259.3773 15.08845789 94905,6917.863,95.437,540.96,538.495,0.0
51857.0,STARLINK-3571,PAYLOAD,2023-11-12 04:01:07,15.08846069,0.000177,53.2169,228.291,100.6845,259.4347,0.00029457,4.404e-05,0.0,0 STARLINK-3571,1 51857U 22022F   23316.16745012  .00004404  00000-0  29457-3 0  9997,2 51857  53.2169 228.2910 0001770 100.6845 259.4347 15.08846069 94922,6917.862,95.437,540.951,538.502,0.0
